{"type": "FeatureCollection", "features": [ {"type": "Feature", "properties": {"norad_id": 33870, "name": "IRIDIUM 33 DEB", "group": "iridium-33-debris", "lat": 81.7449080431649, "lon": 78.23906083182402, "alt_km": 721.565989811309, "timestamp": "2025-12-26T14:28:48.087939+00:00", "meta": {"OBJECT_NAME": "IRIDIUM 33 DEB", "OBJECT_ID": "1997-051AP", "EPOCH": "2025-12-26T04:22:57.981792", "MEAN_MOTION": 14.4591679, "ECCENTRICITY": 0.0022745, "INCLINATION": 86.3734, "RA_OF_ASC_NODE": 52.4978, "ARG_OF_PERICENTER": 135.5869, "MEAN_ANOMALY": 278.6408, "EPHEMERIS_TYPE": 0, "CLASSIFICATION_TYPE": "U", "NORAD_CAT_ID": 33870, "ELEMENT_SET_NO": 999, "REV_AT_EPOCH": 88331, "BSTAR": 0.00069287799, "MEAN_MOTION_DOT": 2.49e-05, "MEAN_MOTION_DDOT": 0}, "tle": {"line1": "1 33870U 97051AP  25360.18261553  .00002490  00000+0  69288-3 0  9990", "line2": "2 33870  86.3734  52.4978 0022745 135.5869 278.6408 14.45916790883310"}}, "geometry": {"type": "Point", "coordinates": [78.23906083182402, 81.7449080431649]}}, {"type": "Feature", "properties": {"norad_id": 33881, "name": "IRIDIUM 33 DEB", "group": "iridium-33-debris", "lat": 50.01503043317024, "lon": -83.60552233391931, "alt_km": 655.7005281696602, "timestamp": "2025-12-26T14:28:48.087950+00:00", "meta": {"OBJECT_NAME": "IRIDIUM 33 DEB", "OBJECT_ID": "1997-051BA", "EPOCH": "2025-12-24T19:37:00.349824", "MEAN_MOTION": 14.5678795, "ECCENTRICITY": 0.00611156, "INCLINATION": 86.3859, "RA_OF_ASC_NODE": 101.4931, "ARG_OF_PERICENTER": 135.6602, "MEAN_ANOMALY": 353.6404, "EPHEMERIS_TYPE": 0, "CLASSIFICATION_TYPE": "U", "NORAD_CAT_ID": 33881, "ELEMENT_SET_NO": 999, "REV_AT_EPOCH": 87676, "BSTAR": 0.0022055938, "MEAN_MOTION_DOT": 0.0001015, "MEAN_MOTION_DDOT": 0}, "tle": {"line1": "1 33881U 97051BA  25358.81736516  .00010150  00000+0  22056-2 0  9998", "line2": "2 33881  86.3859 101.4931 0061115 135.6602 353.6404 14.56787950876761"}}, "geometry": {"type": "Point", "coordinates": [-83.60552233391931, 50.01503043317024]}}, {"type": "Feature", "properties": {"norad_id": 33884, "name": "IRIDIUM 33 DEB", "group": "iridium-33-debris", "lat": 36.25098196133426, "lon": 6.2266955871337135, "alt_km": 637.8801032425527, "timestamp": "2025-12-26T14:28:48.087962+00:00", "meta": {"OBJECT_NAME": "IRIDIUM 33 DEB", "OBJECT_ID": "1997-051BD", "EPOCH": "2025-12-26T06:15:16.725600", "MEAN_MOTION": 14.77700973, "ECCENTRICITY": 0.00088164, "INCLINATION": 86.3712, "RA_OF_ASC_NODE": 3.7142, "ARG_OF_PERICENTER": 270.6095, "MEAN_ANOMALY": 103.7341, "EPHEMERIS_TYPE": 0, "CLASSIFICATION_TYPE": "U", "NORAD_CAT_ID": 33884, "ELEMENT_SET_NO": 999, "REV_AT_EPOCH": 89047, "BSTAR": 0.0015234068, "MEAN_MOTION_DOT": 0.00010949, "MEAN_MOTION_DDOT": 0}, "tle": {"line1": "1 33884U 97051BD  25360.26061025  .00010949  00000+0  15234-2 0  9995", "line2": "2 33884  86.3712   3.7142 0008816 270.6095 103.7341 14.77700973890476"}}, "geometry": {"type": "Point", "coordinates": [6.2266955871337135, 36.25098196133426]}}, {"type": "Feature", "properties": {"norad_id": 33886, "name": "IRIDIUM 33 DEB", "group": "iridium-33-debris", "lat": 53.448968440402886, "lon": 66.28904104437552, "alt_km": 773.9390742861669, "timestamp": "2025-12-26T14:28:48.087972+00:00", "meta": {"OBJECT_NAME": "IRIDIUM 33 DEB", "OBJECT_ID": "1997-051BF", "EPOCH": "2025-12-26T06:10:31.467360", "MEAN_MOTION": 14.36067258, "ECCENTRICITY": 0.00136174, "INCLINATION": 86.3819, "RA_OF_ASC_NODE": 61.5386, "ARG_OF_PERICENTER": 193.9431, "MEAN_ANOMALY": 232.0618, "EPHEMERIS_TYPE": 0, "CLASSIFICATION_TYPE": "U", "NORAD_CAT_ID": 33886, "ELEMENT_SET_NO": 999, "REV_AT_EPOCH": 88246, "BSTAR": 0.00019132967, "MEAN_MOTION_DOT": 5.76e-06, "MEAN_MOTION_DDOT": 0}, "tle": {"line1": "1 33886U 97051BF  25360.25730865  .00000576  00000+0  19133-3 0  9999", "line2": "2 33886  86.3819  61.5386 0013617 193.9431 232.0618 14.36067258882464"}}, "geometry": {"type": "Point", "coordinates": [66.28904104437552, 53.448968440402886]}}, {"type": "Feature", "properties": {"norad_id": 33887, "name": "IRIDIUM 33 DEB", "group": "iridium-33-debris", "lat": 47.96824623918784, "lon": 1.529114065885042, "alt_km": 765.9591755214724, "timestamp": "2025-12-26T14:28:48.087983+00:00", "meta": {"OBJECT_NAME": "IRIDIUM 33 DEB", "OBJECT_ID": "1997-051BG", "EPOCH": "2025-12-26T01:09:55.785312", "MEAN_MOTION": 14.37232581, "ECCENTRICITY": 0.00058983, "INCLINATION": 86.3044, "RA_OF_ASC_NODE": 357.6564, "ARG_OF_PERICENTER": 176.4648, "MEAN_ANOMALY": 243.1701, "EPHEMERIS_TYPE": 0, "CLASSIFICATION_TYPE": "U", "NORAD_CAT_ID": 33887, "ELEMENT_SET_NO": 999, "REV_AT_EPOCH": 88356, "BSTAR": 0.00014545145, "MEAN_MOTION_DOT": 4.53e-06, "MEAN_MOTION_DDOT": 0}, "tle": {"line1": "1 33887U 97051BG  25360.04856233  .00000453  00000+0  14545-3 0  9991", "line2": "2 33887  86.3044 357.6564 0005898 176.4648 243.1701 14.37232581883562"}}, "geometry": {"type": "Point", "coordinates": [1.529114065885042, 47.96824623918784]}}, {"type": "Feature", "properties": {"norad_id": 33953, "name": "IRIDIUM 33 DEB", "group": "iridium-33-debris", "lat": 86.20651048602484, "lon": 120.29534563097039, "alt_km": 689.5593270079826, "timestamp": "2025-12-26T14:28:48.087994+00:00", "meta": {"OBJECT_NAME": "IRIDIUM 33 DEB", "OBJECT_ID": "1997-051BN", "EPOCH": "2025-12-26T02:39:33.223680", "MEAN_MOTION": 14.55445829, "ECCENTRICITY": 0.0017493, "INCLINATION": 86.3833, "RA_OF_ASC_NODE": 47.9748, "ARG_OF_PERICENTER": 61.7308, "MEAN_ANOMALY": 328.017, "EPHEMERIS_TYPE": 0, "CLASSIFICATION_TYPE": "U", "NORAD_CAT_ID": 33953, "ELEMENT_SET_NO": 999, "REV_AT_EPOCH": 88498, "BSTAR": 0.0010461121, "MEAN_MOTION_DOT": 4.576e-05, "MEAN_MOTION_DDOT": 0}, "tle": {"line1": "1 33953U 97051BN  25360.11080120  .00004576  00000+0  10461-2 0  9999", "line2": "2 33953  86.3833  47.9748 0017493  61.7308 328.0170 14.55445829884989"}}, "geometry": {"type": "Point", "coordinates": [120.29534563097039, 86.20651048602484]}}, {"type": "Feature", "properties": {"norad_id": 33960, "name": "IRIDIUM 33 DEB", "group": "iridium-33-debris", "lat": -44.7590146842677, "lon": -80.74985873612995, "alt_km": 616.8812739007708, "timestamp": "2025-12-26T14:28:48.088005+00:00", "meta": {"OBJECT_NAME": "IRIDIUM 33 DEB", "OBJECT_ID": "1997-051BV", "EPOCH": "2025-12-25T19:31:33.400992", "MEAN_MOTION": 14.85848128, "ECCENTRICITY": 0.00070784, "INCLINATION": 86.2535, "RA_OF_ASC_NODE": 283.3484, "ARG_OF_PERICENTER": 39.5343, "MEAN_ANOMALY": 14.0569, "EPHEMERIS_TYPE": 0, "CLASSIFICATION_TYPE": "U", "NORAD_CAT_ID": 33960, "ELEMENT_SET_NO": 999, "REV_AT_EPOCH": 89061, "BSTAR": 0.0032209235, "MEAN_MOTION_DOT": 0.00028154, "MEAN_MOTION_DDOT": 0}, "tle": {"line1": "1 33960U 97051BV  25359.81358103  .00028154  00000+0  32209-2 0  9993", "line2": "2 33960  86.2535 283.3484 0007078  39.5343  14.0569 14.85848128890611"}}, "geometry": {"type": "Point", "coordinates": [-80.74985873612995, -44.7590146842677]}}, {"type": "Feature", "properties": {"norad_id": 33966, "name": "IRIDIUM 33 DEB", "group": "iridium-33-debris", "lat": -72.25016508425368, "lon": 28.70475448946008, "alt_km": 739.1411009675548, "timestamp": "2025-12-26T14:28:48.088017+00:00", "meta": {"OBJECT_NAME": "IRIDIUM 33 DEB", "OBJECT_ID": "1997-051CB", "EPOCH": "2025-12-26T03:28:19.099200", "MEAN_MOTION": 14.49643955, "ECCENTRICITY": 0.00088311, "INCLINATION": 86.3909, "RA_OF_ASC_NODE": 40.2734, "ARG_OF_PERICENTER": 147.0039, "MEAN_ANOMALY": 268.233, "EPHEMERIS_TYPE": 0, "CLASSIFICATION_TYPE": "U", "NORAD_CAT_ID": 33966, "ELEMENT_SET_NO": 999, "REV_AT_EPOCH": 88636, "BSTAR": 0.00047027402, "MEAN_MOTION_DOT": 1.827e-05, "MEAN_MOTION_DDOT": 0}, "tle": {"line1": "1 33966U 97051CB  25360.14466550  .00001827  00000+0  47027-3 0  9996", "line2": "2 33966  86.3909  40.2734 0008831 147.0039 268.2330 14.49643955886363"}}, "geometry": {"type": "Point", "coordinates": [28.70475448946008, -72.25016508425368]}}, {"type": "Feature", "properties": {"norad_id": 34071, "name": "IRIDIUM 33 DEB", "group": "iridium-33-debris", "lat": -12.71291391595289, "lon": 10.975201745059627, "alt_km": 730.9096566133185, "timestamp": "2025-12-26T14:28:48.088027+00:00", "meta": {"OBJECT_NAME": "IRIDIUM 33 DEB", "OBJECT_ID": "1997-051CE", "EPOCH": "2025-12-26T02:56:28.284576", "MEAN_MOTION": 14.49522811, "ECCENTRICITY": 0.00098109, "INCLINATION": 86.3453, "RA_OF_ASC_NODE": 12.0103, "ARG_OF_PERICENTER": 71.963, "MEAN_ANOMALY": 288.2643, "EPHEMERIS_TYPE": 0, "CLASSIFICATION_TYPE": "U", "NORAD_CAT_ID": 34071, "ELEMENT_SET_NO": 999, "REV_AT_EPOCH": 88528, "BSTAR": 0.00059586609, "MEAN_MOTION_DOT": 2.304e-05, "MEAN_MOTION_DDOT": 0}, "tle": {"line1": "1 34071U 97051CE  25360.12254959  .00002304  00000+0  59587-3 0  9995", "line2": "2 34071  86.3453  12.0103 0009810  71.9630 288.2643 14.49522811885288"}}, "geometry": {"type": "Point", "coordinates": [10.975201745059627, -12.71291391595289]}}, {"type": "Feature", "properties": {"norad_id": 34077, "name": "IRIDIUM 33 DEB", "group": "iridium-33-debris", "lat": -58.16926129393965, "lon": -128.7554485853643, "alt_km": 686.8204937135552, "timestamp": "2025-12-26T14:28:48.088038+00:00", "meta": {"OBJECT_NAME": "IRIDIUM 33 DEB", "OBJECT_ID": "1997-051CL", "EPOCH": "2025-12-26T03:48:27.994176", "MEAN_MOTION": 14.65007074, "ECCENTRICITY": 0.0008627, "INCLINATION": 86.3848, "RA_OF_ASC_NODE": 45.595, "ARG_OF_PERICENTER": 355.0003, "MEAN_ANOMALY": 59.6549, "EPHEMERIS_TYPE": 0, "CLASSIFICATION_TYPE": "U", "NORAD_CAT_ID": 34077, "ELEMENT_SET_NO": 999, "REV_AT_EPOCH": 88529, "BSTAR": 0.0014920942, "MEAN_MOTION_DOT": 8.022e-05, "MEAN_MOTION_DDOT": 0}, "tle": {"line1": "1 34077U 97051CL  25360.15865734  .00008022  00000+0  14921-2 0  9998", "line2": "2 34077  86.3848  45.5950 0008627 355.0003  59.6549 14.65007074885291"}}, "geometry": {"type": "Point", "coordinates": [-128.7554485853643, -58.16926129393965]}}]}